{
  "type": "FeatureCollection",
  "features": [
    {
      "type": "Feature",
      "properties": {
        "norad_id": 45807,
        "name": "BEIDOU-3 G3 (C61)",
        "group": "gnss",
        "lat": 0.028160334204261988,
        "lon": 67.05407196845125,
        "alt_km": 35769.991960423155,
        "timestamp": "2025-12-25T14:48:25.023846+00:00",
        "meta_object_name": "BEIDOU-3 G3 (C61)",
        "meta_object_id": "2020-040A",
        "meta_epoch": "2025-12-25T06:44:37.184352",
        "meta_mean_motion": 1.00267527,
        "meta_eccentricity": 0.00065935,
        "meta_inclination": 2.0195,
        "meta_ra_of_asc_node": 66.6879,
        "meta_arg_of_pericenter": 309.0076,
        "meta_mean_anomaly": 290.0312,
        "meta_ephemeris_type": 0,
        "meta_classification_type": "U",
        "meta_norad_cat_id": 45807,
        "meta_element_set_no": 999,
        "meta_rev_at_epoch": 2032,
        "meta_bstar": 0,
        "meta_mean_motion_dot": -3.33e-06,
        "meta_mean_motion_ddot": 0,
        "tle_line1": "1 45807U 20040A   25359.28098593 -.00000333  00000+0  00000+0 0  9996",
        "tle_line2": "2 45807   2.0195  66.6879 0006593 309.0076 290.0312  1.00267527 20327"
      },
      "geometry": {
        "type": "Point",
        "coordinates": [
          67.05407196845125,
          0.028160334204261988
        ]
      }
    },
    {
      "type": "Feature",
      "properties": {
        "norad_id": 45854,
        "name": "GPS BIII-3  (PRN 23)",
        "group": "gnss",
        "lat": -54.40020580021089,
        "lon": -31.638761363062464,
        "alt_km": 20156.78664850009,
        "timestamp": "2025-12-25T14:48:25.023856+00:00",
        "meta_object_name": "GPS BIII-3  (PRN 23)",
        "meta_object_id": "2020-041A",
        "meta_epoch": "2025-12-24T07:36:15.586848",
        "meta_mean_motion": 2.00561688,
        "meta_eccentricity": 0.00606528,
        "meta_inclination": 56.5546,
        "meta_ra_of_asc_node": 35.7353,
        "meta_arg_of_pericenter": 203.7393,
        "meta_mean_anomaly": 219.8521,
        "meta_ephemeris_type": 0,
        "meta_classification_type": "U",
        "meta_norad_cat_id": 45854,
        "meta_element_set_no": 999,
        "meta_rev_at_epoch": 4053,
        "meta_bstar": 0,
        "meta_mean_motion_dot": -4.9e-07,
        "meta_mean_motion_ddot": 0,
        "tle_line1": "1 45854U 20041A   25358.31684707 -.00000049  00000+0  00000+0 0  9994",
        "tle_line2": "2 45854  56.5546  35.7353 0060652 203.7393 219.8521  2.00561688 40537"
      },
      "geometry": {
        "type": "Point",
        "coordinates": [
          -31.638761363062464,
          -54.40020580021089
        ]
      }
    },
    {
      "type": "Feature",
      "properties": {
        "norad_id": 46114,
        "name": "GALAXY 30 (WAAS/PRN 135)",
        "group": "gnss",
        "lat": -0.012541869927277804,
        "lon": -168.55658713683582,
        "alt_km": 35784.90121825899,
        "timestamp": "2025-12-25T14:48:25.023866+00:00",
        "meta_object_name": "GALAXY 30 (WAAS/PRN 135)",
        "meta_object_id": "2020-056C",
        "meta_epoch": "2025-12-25T06:10:38.820000",
        "meta_mean_motion": 1.00271167,
        "meta_eccentricity": 0.00021608,
        "meta_inclination": 0.0179,
        "meta_ra_of_asc_node": 337.5906,
        "meta_arg_of_pericenter": 295.4491,
        "meta_mean_anomaly": 148.6389,
        "meta_ephemeris_type": 0,
        "meta_classification_type": "U",
        "meta_norad_cat_id": 46114,
        "meta_element_set_no": 999,
        "meta_rev_at_epoch": 1954,
        "meta_bstar": 0,
        "meta_mean_motion_dot": 5.8e-07,
        "meta_mean_motion_ddot": 0,
        "tle_line1": "1 46114U 20056C   25359.25739375  .00000058  00000+0  00000+0 0  9995",
        "tle_line2": "2 46114   0.0179 337.5906 0002160 295.4491 148.6389  1.00271167 19544"
      },
      "geometry": {
        "type": "Point",
        "coordinates": [
          -168.55658713683582,
          -0.012541869927277804
        ]
      }
    },
    {
      "type": "Feature",
      "properties": {
        "norad_id": 46805,
        "name": "COSMOS 2547 (705K)",
        "group": "gnss",
        "lat": -43.73335843390409,
        "lon": 45.32545225329784,
        "alt_km": 19119.75731385997,
        "timestamp": "2025-12-25T14:48:25.023876+00:00",
        "meta_object_name": "COSMOS 2547 (705K)",
        "meta_object_id": "2020-075A",
        "meta_epoch": "2025-12-24T20:21:03.584160",
        "meta_mean_motion": 2.13100193,
        "meta_eccentricity": 0.00061113,
        "meta_inclination": 64.5968,
        "meta_ra_of_asc_node": 198.292,
        "meta_arg_of_pericenter": 227.5617,
        "meta_mean_anomaly": 132.4433,
        "meta_ephemeris_type": 0,
        "meta_classification_type": "U",
        "meta_norad_cat_id": 46805,
        "meta_element_set_no": 999,
        "meta_rev_at_epoch": 4019,
        "meta_bstar": 0,
        "meta_mean_motion_dot": 1.02e-06,
        "meta_mean_motion_ddot": 0,
        "tle_line1": "1 46805U 20075A   25358.84795815  .00000102  00000+0  00000+0 0  9998",
        "tle_line2": "2 46805  64.5968 198.2920 0006111 227.5617 132.4433  2.13100193 40197"
      },
      "geometry": {
        "type": "Point",
        "coordinates": [
          45.32545225329784,
          -43.73335843390409
        ]
      }
    },
    {
      "type": "Feature",
      "properties": {
        "norad_id": 46826,
        "name": "GPS BIII-4  (PRN 14)",
        "group": "gnss",
        "lat": -51.11180494505169,
        "lon": 102.1051803049037,
        "alt_km": 20077.21364019204,
        "timestamp": "2025-12-25T14:48:25.023890+00:00",
        "meta_object_name": "GPS BIII-4  (PRN 14)",
        "meta_object_id": "2020-078A",
        "meta_epoch": "2025-12-16T01:06:13.902336",
        "meta_mean_motion": 2.00566891,
        "meta_eccentricity": 0.0064754,
        "meta_inclination": 54.0144,
        "meta_ra_of_asc_node": 218.2068,
        "meta_arg_of_pericenter": 203.3802,
        "meta_mean_anomaly": 339.3962,
        "meta_ephemeris_type": 0,
        "meta_classification_type": "U",
        "meta_norad_cat_id": 46826,
        "meta_element_set_no": 999,
        "meta_rev_at_epoch": 3783,
        "meta_bstar": 0,
        "meta_mean_motion_dot": 6.7e-07,
        "meta_mean_motion_ddot": 0,
        "tle_line1": "1 46826U 20078A   25350.04599424  .00000067  00000+0  00000+0 0  9996",
        "tle_line2": "2 46826  54.0144 218.2068 0064754 203.3802 339.3962  2.00566891 37830"
      },
      "geometry": {
        "type": "Point",
        "coordinates": [
          102.1051803049037,
          -51.11180494505169
        ]
      }
    },
    {
      "type": "Feature",
      "properties": {
        "norad_id": 48859,
        "name": "GPS BIII-5  (PRN 11)",
        "group": "gnss",
        "lat": 53.531609791029226,
        "lon": 49.284061232640326,
        "alt_km": 20236.518347230354,
        "timestamp": "2025-12-25T14:48:25.023902+00:00",
        "meta_object_name": "GPS BIII-5  (PRN 11)",
        "meta_object_id": "2021-054A",
        "meta_epoch": "2025-12-08T04:14:32.423424",
        "meta_mean_motion": 2.00553627,
        "meta_eccentricity": 0.0024678,
        "meta_inclination": 55.2581,
        "meta_ra_of_asc_node": 340.1367,
        "meta_arg_of_pericenter": 233.3993,
        "meta_mean_anomaly": 212.8594,
        "meta_ephemeris_type": 0,
        "meta_classification_type": "U",
        "meta_norad_cat_id": 48859,
        "meta_element_set_no": 999,
        "meta_rev_at_epoch": 3292,
        "meta_bstar": 0,
        "meta_mean_motion_dot": -8.6e-07,
        "meta_mean_motion_ddot": 0,
        "tle_line1": "1 48859U 21054A   25342.17676416 -.00000086  00000+0  00000+0 0  9993",
        "tle_line2": "2 48859  55.2581 340.1367 0024678 233.3993 212.8594  2.00553627 32922"
      },
      "geometry": {
        "type": "Point",
        "coordinates": [
          49.284061232640326,
          53.531609791029226
        ]
      }
    },
    {
      "type": "Feature",
      "properties": {
        "norad_id": 49336,
        "name": "QZS-1R (QZSS/PRN 196)",
        "group": "gnss",
        "lat": 9.99313530421964,
        "lon": 95.6370150985979,
        "alt_km": 36402.53367330166,
        "timestamp": "2025-12-25T14:48:25.023912+00:00",
        "meta_object_name": "QZS-1R (QZSS/PRN 196)",
        "meta_object_id": "2021-096A",
        "meta_epoch": "2025-12-24T14:02:51.747360",
        "meta_mean_motion": 1.00253394,
        "meta_eccentricity": 0.0757125,
        "meta_inclination": 37.101,
        "meta_ra_of_asc_node": 82.185,
        "meta_arg_of_pericenter": 271.5387,
        "meta_mean_anomaly": 84.3648,
        "meta_ephemeris_type": 0,
        "meta_classification_type": "U",
        "meta_norad_cat_id": 49336,
        "meta_element_set_no": 999,
        "meta_rev_at_epoch": 1526,
        "meta_bstar": 0,
        "meta_mean_motion_dot": -2.38e-06,
        "meta_mean_motion_ddot": 0,
        "tle_line1": "1 49336U 21096A   25358.58532115 -.00000238  00000+0  00000+0 0  9998",
        "tle_line2": "2 49336  37.1010  82.1850 0757125 271.5387  84.3648  1.00253394 15267"
      },
      "geometry": {
        "type": "Point",
        "coordinates": [
          95.6370150985979,
          9.99313530421964
        ]
      }
    }
  ]
}